GLOBALSTAR M075 [+]     
1 37192U 10054E   23244.15222645 -.00000098  00000+0  30994-4 0  9990
2 37192  51.9970  15.9740 0000559  88.3939 326.4765 12.62260632593651
GLOBALSTAR M073 [+]     
1 37193U 10054F   23244.06270354 -.00000072  00000+0  17676-3 0  9994
2 37193  52.0057 289.5705 0000400 109.6867 257.8396 12.62267051595147
GLOBALSTAR M083 [+]     
1 37739U 11033A   23244.34194983 -.00000105  00000+0 -78088-5 0  9996
2 37739  51.9840 238.3432 0000228 146.6738 351.4046 12.62268670564514
GLOBALSTAR M088 [+]     
1 37740U 11033B   23244.05033983 -.00000075  00000+0  15927-3 0  9994
2 37740  51.9727 145.2741 0000323  44.3420 327.6436 12.62265060559957
GLOBALSTAR M091 [+]     
1 37741U 11033C   23244.33636346 -.00000079  00000+0  13954-3 0  9990
2 37741  51.9990 106.7866 0000405  64.8703 106.8941 12.62265938560743
GLOBALSTAR M085 [+]     
1 37742U 11033D   23244.00762867 -.00000096  00000+0  44624-4 0  9991
2 37742  51.9871  59.4032 0000581  89.7941  88.3099 12.62266685561442
GLOBALSTAR M081 [+]     
1 37743U 11033E   23244.47415094 -.00000095  00000+0  49307-4 0  9992
2 37743  51.9961  60.3665 0000533  65.3093 313.3066 12.62270660561545
GLOBALSTAR M089 [+]     
1 37744U 11033F   23244.15170983 -.00000108  00000+0 -22641-4 0  9991
2 37744  51.9953  15.7001 0000847  78.8716  93.5471 12.62266293562213
